ONEWEB-0212             
1 48791U 21045AA  26177.71704924 -.00000134  00000+0 -39077-3 0  9996
2 48791  87.9009 257.2902 0002080 100.4406 259.6959 13.15550401245681
ONEWEB-0227             
1 48792U 21045AB  26177.71627397 -.00000169  00000+0 -48386-3 0  9996
2 48792  87.9007 257.2910 0002032 103.1127 257.0230 13.15549070245635
ONEWEB-0226             
1 48793U 21045AC  26177.70992447 -.00000117  00000+0 -34566-3 0  9995
2 48793  87.9005 257.2967 0001788 103.3641 256.7689 13.15546674245604
ONEWEB-0224             
1 48794U 21045AD  26177.74955465  .00000139  00000+0  33403-3 0  9990
2 48794  87.8998 257.3222 0002691 114.5797 245.5614 13.15547456245535
ONEWEB-0233             
1 48795U 21045AE  26177.67811109  .00000106  00000+0  24794-3 0  9996
2 48795  87.9000 257.3439 0001985 109.2594 250.8751 13.15548451245540
ONEWEB-0190             
1 48796U 21045AF  26177.66557084  .00000198  00000+0  49307-3 0  9993
2 48796  87.9000 257.3087 0001611 119.3269 240.8022 13.15547928245613
ONEWEB-0236             
1 48797U 21045AG  26177.68300744  .00000025  00000+0  31482-4 0  9990
2 48797  87.8998 257.3147 0002146  98.8851 261.2522 13.15549069245506
ONEWEB-0248             
1 48798U 21045AH  26177.69567935 -.00000082  00000+0 -25249-3 0  9997
2 48798  87.9010 257.2966 0002038 114.4547 245.6796 13.15547951245662
ONEWEB-0225             
1 48799U 21045AJ  26177.71786184 -.00000078  00000+0 -24037-3 0  9999
2 48799  87.9002 257.3001 0001710 115.9273 244.2034 13.15549060245677
ONEWEB-0215             
1 48800U 21045AK  26177.68775469  .00000033  00000+0  52947-4 0  9993
2 48800  87.9013 257.2891 0001833 119.9385 240.1927 13.15547290245547
ONEWEB-0216             
1 48801U 21045AL  26177.69726387 -.00000077  00000+0 -23752-3 0  9991
2 48801  87.9009 257.3015 0001985  98.1647 261.9708 13.15549153245558
ONEWEB-0239             
1 48802U 21045AM  26177.70201443 -.00000120  00000+0 -35328-3 0  9996
2 48802  87.8998 257.3061 0002075 123.0052 237.1278 13.15549167245591
ONEWEB-0249             
1 48967U 21060A   26177.55250266 -.00000012  00000+0 -65635-4 0  9990
2 48967  87.9088 226.9184 0002116  99.8217 260.3153 13.16595384240847
ONEWEB-0250             
1 48968U 21060B   26176.68445687  .00000037  00000+0  54968-4 0  9999
2 48968  87.9091 224.8197 0003046 105.7714 254.3759 13.25834152241345
ONEWEB-0252             
1 48970U 21060D   26177.58339166  .00000117  00000+0  27363-3 0  9993
2 48970  87.9091 226.9044 0001843  93.0150 267.1191 13.16594072240893
ONEWEB-0253             
1 48971U 21060E   26177.57230963  .00000072  00000+0  15492-3 0  9998
2 48971  87.9087 226.9120 0002142  99.2469 260.8904 13.16594092240825
ONEWEB-0254             
1 48972U 21060F   26177.58180433  .00000111  00000+0  25780-3 0  9991
2 48972  87.9091 226.9079 0002064 105.7661 254.3698 13.16594620240829
