[{"OBJECT_NAME":"ONEWEB-0212","OBJECT_ID":"2021-045AA","EPOCH":"2026-06-26T17:12:33.054336","MEAN_MOTION":13.15550401,"ECCENTRICITY":0.000208,"INCLINATION":87.9009,"RA_OF_ASC_NODE":257.2902,"ARG_OF_PERICENTER":100.4406,"MEAN_ANOMALY":259.6959,"EPHEMERIS_TYPE":0,"CLASSIFICATION_TYPE":"U","NORAD_CAT_ID":48791,"ELEMENT_SET_NO":999,"REV_AT_EPOCH":24568,"BSTAR":-0.00039077,"MEAN_MOTION_DOT":-1.34e-6,"MEAN_MOTION_DDOT":0},{"OBJECT_NAME":"ONEWEB-0227","OBJECT_ID":"2021-045AB","EPOCH":"2026-06-26T17:11:26.071008","MEAN_MOTION":13.1554907,"ECCENTRICITY":0.0002032,"INCLINATION":87.9007,"RA_OF_ASC_NODE":257.291,"ARG_OF_PERICENTER":103.1127,"MEAN_ANOMALY":257.023,"EPHEMERIS_TYPE":0,"CLASSIFICATION_TYPE":"U","NORAD_CAT_ID":48792,"ELEMENT_SET_NO":999,"REV_AT_EPOCH":24563,"BSTAR":-0.00048386,"MEAN_MOTION_DOT":-1.69e-6,"MEAN_MOTION_DDOT":0},{"OBJECT_NAME":"ONEWEB-0226","OBJECT_ID":"2021-045AC","EPOCH":"2026-06-26T17:02:17.474208","MEAN_MOTION":13.15546674,"ECCENTRICITY":0.0001788,"INCLINATION":87.9005,"RA_OF_ASC_NODE":257.2967,"ARG_OF_PERICENTER":103.3641,"MEAN_ANOMALY":256.7689,"EPHEMERIS_TYPE":0,"CLASSIFICATION_TYPE":"U","NORAD_CAT_ID":48793,"ELEMENT_SET_NO":999,"REV_AT_EPOCH":24560,"BSTAR":-0.00034566,"MEAN_MOTION_DOT":-1.17e-6,"MEAN_MOTION_DDOT":0},{"OBJECT_NAME":"ONEWEB-0224","OBJECT_ID":"2021-045AD","EPOCH":"2026-06-26T17:59:21.521760","MEAN_MOTION":13.15547456,"ECCENTRICITY":0.0002691,"INCLINATION":87.8998,"RA_OF_ASC_NODE":257.3222,"ARG_OF_PERICENTER":114.5797,"MEAN_ANOMALY":245.5614,"EPHEMERIS_TYPE":0,"CLASSIFICATION_TYPE":"U","NORAD_CAT_ID":48794,"ELEMENT_SET_NO":999,"REV_AT_EPOCH":24553,"BSTAR":0.00033403,"MEAN_MOTION_DOT":1.39e-6,"MEAN_MOTION_DDOT":0},{"OBJECT_NAME":"ONEWEB-0233","OBJECT_ID":"2021-045AE","EPOCH":"2026-06-26T16:16:28.798176","MEAN_MOTION":13.15548451,"ECCENTRICITY":0.0001985,"INCLINATION":87.9,"RA_OF_ASC_NODE":257.3439,"ARG_OF_PERICENTER":109.2594,"MEAN_ANOMALY":250.8751,"EPHEMERIS_TYPE":0,"CLASSIFICATION_TYPE":"U","NORAD_CAT_ID":48795,"ELEMENT_SET_NO":999,"REV_AT_EPOCH":24554,"BSTAR":0.00024794,"MEAN_MOTION_DOT":1.06e-6,"MEAN_MOTION_DDOT":0},{"OBJECT_NAME":"ONEWEB-0190","OBJECT_ID":"2021-045AF","EPOCH":"2026-06-26T15:58:25.320576","MEAN_MOTION":13.15547928,"ECCENTRICITY":0.0001611,"INCLINATION":87.9,"RA_OF_ASC_NODE":257.3087,"ARG_OF_PERICENTER":119.3269,"MEAN_ANOMALY":240.8022,"EPHEMERIS_TYPE":0,"CLASSIFICATION_TYPE":"U","NORAD_CAT_ID":48796,"ELEMENT_SET_NO":999,"REV_AT_EPOCH":24561,"BSTAR":0.00049307,"MEAN_MOTION_DOT":1.98e-6,"MEAN_MOTION_DDOT":0},{"OBJECT_NAME":"ONEWEB-0236","OBJECT_ID":"2021-045AG","EPOCH":"2026-06-26T16:23:31.842816","MEAN_MOTION":13.15549069,"ECCENTRICITY":0.0002146,"INCLINATION":87.8998,"RA_OF_ASC_NODE":257.3147,"ARG_OF_PERICENTER":98.8851,"MEAN_ANOMALY":261.2522,"EPHEMERIS_TYPE":0,"CLASSIFICATION_TYPE":"U","NORAD_CAT_ID":48797,"ELEMENT_SET_NO":999,"REV_AT_EPOCH":24550,"BSTAR":3.1482e-5,"MEAN_MOTION_DOT":2.5e-7,"MEAN_MOTION_DDOT":0},{"OBJECT_NAME":"ONEWEB-0248","OBJECT_ID":"2021-045AH","EPOCH":"2026-06-26T16:41:46.695840","MEAN_MOTION":13.15547951,"ECCENTRICITY":0.0002038,"INCLINATION":87.901,"RA_OF_ASC_NODE":257.2966,"ARG_OF_PERICENTER":114.4547,"MEAN_ANOMALY":245.6796,"EPHEMERIS_TYPE":0,"CLASSIFICATION_TYPE":"U","NORAD_CAT_ID":48798,"ELEMENT_SET_NO":999,"REV_AT_EPOCH":24566,"BSTAR":-0.00025249,"MEAN_MOTION_DOT":-8.2e-7,"MEAN_MOTION_DDOT":0},{"OBJECT_NAME":"ONEWEB-0225","OBJECT_ID":"2021-045AJ","EPOCH":"2026-06-26T17:13:43.262976","MEAN_MOTION":13.1554906,"ECCENTRICITY":0.000171,"INCLINATION":87.9002,"RA_OF_ASC_NODE":257.3001,"ARG_OF_PERICENTER":115.9273,"MEAN_ANOMALY":244.2034,"EPHEMERIS_TYPE":0,"CLASSIFICATION_TYPE":"U","NORAD_CAT_ID":48799,"ELEMENT_SET_NO":999,"REV_AT_EPOCH":24567,"BSTAR":-0.00024037,"MEAN_MOTION_DOT":-7.8e-7,"MEAN_MOTION_DDOT":0},{"OBJECT_NAME":"ONEWEB-0215","OBJECT_ID":"2021-045AK","EPOCH":"2026-06-26T16:30:22.005216","MEAN_MOTION":13.1554729,"ECCENTRICITY":0.0001833,"INCLINATION":87.9013,"RA_OF_ASC_NODE":257.2891,"ARG_OF_PERICENTER":119.9385,"MEAN_ANOMALY":240.1927,"EPHEMERIS_TYPE":0,"CLASSIFICATION_TYPE":"U","NORAD_CAT_ID":48800,"ELEMENT_SET_NO":999,"REV_AT_EPOCH":24554,"BSTAR":5.2947e-5,"MEAN_MOTION_DOT":3.3e-7,"MEAN_MOTION_DDOT":0},{"OBJECT_NAME":"ONEWEB-0216","OBJECT_ID":"2021-045AL","EPOCH":"2026-06-26T16:44:03.598368","MEAN_MOTION":13.15549153,"ECCENTRICITY":0.0001985,"INCLINATION":87.9009,"RA_OF_ASC_NODE":257.3015,"ARG_OF_PERICENTER":98.1647,"MEAN_ANOMALY":261.9708,"EPHEMERIS_TYPE":0,"CLASSIFICATION_TYPE":"U","NORAD_CAT_ID":48801,"ELEMENT_SET_NO":999,"REV_AT_EPOCH":24555,"BSTAR":-0.00023752,"MEAN_MOTION_DOT":-7.7e-7,"MEAN_MOTION_DDOT":0},{"OBJECT_NAME":"ONEWEB-0239","OBJECT_ID":"2021-045AM","EPOCH":"2026-06-26T16:50:54.046752","MEAN_MOTION":13.15549167,"ECCENTRICITY":0.0002075,"INCLINATION":87.8998,"RA_OF_ASC_NODE":257.3061,"ARG_OF_PERICENTER":123.0052,"MEAN_ANOMALY":237.1278,"EPHEMERIS_TYPE":0,"CLASSIFICATION_TYPE":"U","NORAD_CAT_ID":48802,"ELEMENT_SET_NO":999,"REV_AT_EPOCH":24559,"BSTAR":-0.00035328,"MEAN_MOTION_DOT":-1.2e-6,"MEAN_MOTION_DDOT":0},{"OBJECT_NAME":"ONEWEB-0249","OBJECT_ID":"2021-060A","EPOCH":"2026-06-26T13:15:36.229824","MEAN_MOTION":13.16595384,"ECCENTRICITY":0.0002116,"INCLINATION":87.9088,"RA_OF_ASC_NODE":226.9184,"ARG_OF_PERICENTER":99.8217,"MEAN_ANOMALY":260.3153,"EPHEMERIS_TYPE":0,"CLASSIFICATION_TYPE":"U","NORAD_CAT_ID":48967,"ELEMENT_SET_NO":999,"REV_AT_EPOCH":24084,"BSTAR":-6.5635e-5,"MEAN_MOTION_DOT":-1.2e-7,"MEAN_MOTION_DDOT":0},{"OBJECT_NAME":"ONEWEB-0250","OBJECT_ID":"2021-060B","EPOCH":"2026-06-25T16:25:37.073568","MEAN_MOTION":13.25834152,"ECCENTRICITY":0.00030469,"INCLINATION":87.9091,"RA_OF_ASC_NODE":224.8197,"ARG_OF_PERICENTER":105.7714,"MEAN_ANOMALY":254.3759,"EPHEMERIS_TYPE":0,"CLASSIFICATION_TYPE":"U","NORAD_CAT_ID":48968,"ELEMENT_SET_NO":999,"REV_AT_EPOCH":24134,"BSTAR":5.4968112e-5,"MEAN_MOTION_DOT":3.7e-7,"MEAN_MOTION_DDOT":0},{"OBJECT_NAME":"ONEWEB-0252","OBJECT_ID":"2021-060D","EPOCH":"2026-06-26T14:00:05.039424","MEAN_MOTION":13.16594072,"ECCENTRICITY":0.0001843,"INCLINATION":87.9091,"RA_OF_ASC_NODE":226.9044,"ARG_OF_PERICENTER":93.015,"MEAN_ANOMALY":267.1191,"EPHEMERIS_TYPE":0,"CLASSIFICATION_TYPE":"U","NORAD_CAT_ID":48970,"ELEMENT_SET_NO":999,"REV_AT_EPOCH":24089,"BSTAR":0.00027363,"MEAN_MOTION_DOT":1.17e-6,"MEAN_MOTION_DDOT":0},{"OBJECT_NAME":"ONEWEB-0253","OBJECT_ID":"2021-060E","EPOCH":"2026-06-26T13:44:07.552032","MEAN_MOTION":13.16594092,"ECCENTRICITY":0.0002142,"INCLINATION":87.9087,"RA_OF_ASC_NODE":226.912,"ARG_OF_PERICENTER":99.2469,"MEAN_ANOMALY":260.8904,"EPHEMERIS_TYPE":0,"CLASSIFICATION_TYPE":"U","NORAD_CAT_ID":48971,"ELEMENT_SET_NO":999,"REV_AT_EPOCH":24082,"BSTAR":0.00015492,"MEAN_MOTION_DOT":7.2e-7,"MEAN_MOTION_DDOT":0},{"OBJECT_NAME":"ONEWEB-0254","OBJECT_ID":"2021-060F","EPOCH":"2026-06-26T13:57:47.894112","MEAN_MOTION":13.1659462,"ECCENTRICITY":0.0002064,"INCLINATION":87.9091,"RA_OF_ASC_NODE":226.9079,"ARG_OF_PERICENTER":105.7661,"MEAN_ANOMALY":254.3698,"EPHEMERIS_TYPE":0,"CLASSIFICATION_TYPE":"U","NORAD_CAT_ID":48972,"ELEMENT_SET_NO":999,"REV_AT_EPOCH":24082,"BSTAR":0.0002578,"MEAN_MOTION_DOT":1.11e-6,"MEAN_MOTION_DDOT":0}]
